CELESTIS-17 & SHERPA-FX1
1 47486U 21006CB  26068.64311433  .00007207  00000+0  24301-3 0  9993
2 47486  97.2397 112.1052 0006630 178.1385 181.9882 15.30994801284065
STARLINK-32235          
1 60739U 24152V   26068.72452492 -.00004827  00000+0 -15117-3 0  9996
2 60739  53.1586 268.4462 0001079  89.0280 271.0845 15.30156512 86809
