[{"OBJECT_NAME":"CELESTIS-17 & SHERPA-FX1","OBJECT_ID":"2021-006CB","EPOCH":"2026-03-09T15:26:05.078112","MEAN_MOTION":15.30994801,"ECCENTRICITY":0.000663,"INCLINATION":97.2397,"RA_OF_ASC_NODE":112.1052,"ARG_OF_PERICENTER":178.1385,"MEAN_ANOMALY":181.9882,"EPHEMERIS_TYPE":0,"CLASSIFICATION_TYPE":"U","NORAD_CAT_ID":47486,"ELEMENT_SET_NO":999,"REV_AT_EPOCH":28406,"BSTAR":0.00024301,"MEAN_MOTION_DOT":7.207e-5,"MEAN_MOTION_DDOT":0},{"OBJECT_NAME":"STARLINK-32235","OBJECT_ID":"2024-152V","EPOCH":"2026-03-09T17:23:18.953952","MEAN_MOTION":15.30156512,"ECCENTRICITY":0.00010791,"INCLINATION":53.1586,"RA_OF_ASC_NODE":268.4462,"ARG_OF_PERICENTER":89.028,"MEAN_ANOMALY":271.0845,"EPHEMERIS_TYPE":0,"CLASSIFICATION_TYPE":"U","NORAD_CAT_ID":60739,"ELEMENT_SET_NO":999,"REV_AT_EPOCH":8680,"BSTAR":-0.00015117332,"MEAN_MOTION_DOT":-4.827e-5,"MEAN_MOTION_DDOT":0}]
